1 53910U 22119AA  22282.83334491 -.00041301  00000-0 -29069-3 0  9994
2 53910  53.2181 179.3968 0001234  97.7424 117.7958 15.73248743  2774